{
  "norad_id": 57841,
  "name": "STARLINK-30410",
  "history": [
    {
      "epoch": "2026-03-28T16:23:08.517408Z",
      "apogee_km": 476.0909740682291,
      "perigee_km": 474.3652967271355,
      "latitude_deg": 2.557164800823751e-05,
      "longitude_deg": 123.98335725281963,
      "height_km": 476.18369619123365,
      "semi_major_axis_km": 6853.365135397682,
      "eccentricity": 0.0001259,
      "inclination_deg": 53.1599,
      "raan_deg": 195.8685,
      "arg_perigee_deg": 93.82,
      "mean_anomaly_deg": 266.2945,
      "mean_motion_rev_day": 15.30195624
    },
    {
      "epoch": "2026-03-29T00:13:25.165920Z",
      "apogee_km": 476.4543849254078,
      "perigee_km": 474.0721429936548,
      "latitude_deg": -6.966637122805137e-05,
      "longitude_deg": 4.576523884290241,
      "height_km": 476.1493834287909,
      "semi_major_axis_km": 6853.400263959531,
      "eccentricity": 0.0001738,
      "inclination_deg": 53.1603,
      "raan_deg": 194.353,
      "arg_perigee_deg": 89.4547,
      "mean_anomaly_deg": 270.6652,
      "mean_motion_rev_day": 15.30183859
    },
    {
      "epoch": "2026-03-29T23:44:13.093152Z",
      "apogee_km": 476.0128094713882,
      "perigee_km": 474.5091739520067,
      "latitude_deg": -3.245342459369386e-05,
      "longitude_deg": 6.3622978503150955,
      "height_km": 476.2561585018791,
      "semi_major_axis_km": 6853.397991711697,
      "eccentricity": 0.0001097,
      "inclination_deg": 53.1603,
      "raan_deg": 189.8041,
      "arg_perigee_deg": 97.3988,
      "mean_anomaly_deg": 262.7137,
      "mean_motion_rev_day": 15.3018462
    }
  ]
}